IXPE                    
1 49954U 21121A   24156.66667824  .00006033  00000+0  42854-3 0  9998
2 49954   0.2297 126.1329 0008987  94.1516 270.9898 14.98082157  5761
